IRIDIUM 8 [+]           
1 24792U 97020A   17063.30476062  .00000203  00000-0  65288-4 0  9995
2 24792  86.4002   2.5342 0002230  84.9870 275.1580 14.34219815 38169
IRIDIUM 7 [+]           
1 24793U 97020B   17063.36816575  .00000203  00000-0  65539-4 0  9998
2 24793  86.4008   2.7848 0002188  85.5943 274.5502 14.34215510 38175
IRIDIUM 6 [+]           
1 24794U 97020C   17063.36173699  .00000214  00000-0  69208-4 0  9991
2 24794  86.4005   2.7206 0002154  83.9400 276.2041 14.34220900 38170
IRIDIUM 5 [+]           
1 24795U 97020D   17063.49523335  .00000250  00000-0  82085-4 0  9990
2 24795  86.4015   2.6764 0002078  85.2112 274.9321 14.34214840 38273
IRIDIUM 4 [-]           
1 24796U 97020E   17063.43454385  .00000097  00000-0  27159-4 0  9993
2 24796  86.4001   1.7078 0002243  86.9698  51.3481 14.35140797 38283
IRIDIUM 914 [-]         
1 24836U 97030A   17063.45253069  .00000123  00000-0  33694-4 0  9998
2 24836  86.3966  18.7314 0003846  90.7526 269.4113 14.38742086 33888
IRIDIUM 12 [+]          
1 24837U 97030B   17063.46355476  .00000096  00000-0  27324-4 0  9997
2 24837  86.3964  33.8613 0002218  88.3816  25.9869 14.34214847 31936
IRIDIUM 10 [+]          
1 24839U 97030D   17063.45080082  .00000095  00000-0  26818-4 0  9992
2 24839  86.3964  33.8469 0002249  88.0923  25.6650 14.34214753 31949
IRIDIUM 13 [+]          
1 24840U 97030E   17063.44775373  .00000093  00000-0  26286-4 0  9994
2 24840  86.3966  33.9859 0002219  92.0893 268.0557 14.34214404 31936
IRIDIUM 16 [-]          
1 24841U 97030F   17063.45043142  .00000138  00000-0  40146-4 0  9999
2 24841  86.4044  33.8684 0000106 266.2965  93.8220 14.36692528 32546
IRIDIUM 911 [-]         
1 24842U 97030G   17063.47122556  .00000193  00000-0  49487-4 0  9997
2 24842  86.4469  34.7060 0016720  80.2618 280.0471 14.44936310 37827
IRIDIUM 15 [+]          
1 24869U 97034A   17063.48913049  .00000016  00000-0 -14939-5 0  9996
2 24869  86.3917  65.8717 0002030  81.1366 279.0059 14.34216538 28907
IRIDIUM 17 [-]          
1 24870U 97034B   17063.48882428  .00000128  00000-0  37591-4 0  9995
2 24870  86.3928  64.0473 0002318 136.1779 223.9602 14.35740113 29151
IRIDIUM 920 [-]         
1 24871U 97034C   17063.47547335  .00000150  00000-0  41793-4 0  9994
2 24871  86.3955  50.4818 0010683 334.7336  25.3338 14.39454909 31290
IRIDIUM 18 [+]          
1 24872U 97034D   17063.47010993  .00000006  00000-0 -50555-5 0  9998
2 24872  86.3925  65.8492 0002065  84.4428 275.7004 14.34215100 28900
IRIDIUM 921 [-]         
1 24873U 97034E   17063.42321265  .00001741  00000-0  10176-3 0  9990
2 24873  86.3919 115.5188 0009553  54.1623 306.0501 15.11142518 72276
IRIDIUM 26 [-]          
1 24903U 97043A   17063.52226953  .00000092  00000-0  25278-4 0  9991
2 24903  86.3953 298.6291 0001970  85.3155 330.1950 14.35241599 22968
IRIDIUM 25 [+]          
1 24904U 97043B   17063.13928444  .00000131  00000-0  39863-4 0  9992
2 24904  86.3946 299.3571 0001958  82.9745 277.1673 14.34221134 22777
IRIDIUM 46 [+]          
1 24905U 97043C   17063.50079288  .00000154  00000-0  48035-4 0  9993
2 24905  86.3959 299.1658 0001863  76.8208 283.3195 14.34222427 22827
IRIDIUM 23 [+]          
1 24906U 97043D   17063.24232469  .00000127  00000-0  38331-4 0  9995
2 24906  86.3959 299.3472 0002094  81.0028  58.0988 14.34220799 22792
IRIDIUM 22 [+]          
1 24907U 97043E   17063.25978248  .00000130  00000-0  39219-4 0  9999
2 24907  86.3957 299.9639 0002056  84.2904 275.8526 14.34218663 22792
DUMMY MASS 1 [-]        
1 24925U 97048A   17062.66705948  .00000103  00000-0  87154-5 0  9995
2 24925  86.3314  92.0845 0009130  64.2786 295.9379 14.85121650 55684
DUMMY MASS 2 [-]        
1 24926U 97048B   17063.16081109  .00000105  00000-0  90222-5 0  9990
2 24926  86.3314  92.9558 0010035  68.2199 292.0091 14.84889940 55842
IRIDIUM 29 [-]          
1 24944U 97051A   17062.72118673 -.00000100  00000-0 -42344-4 0  9990
2 24944  86.3995 331.0067 0002407  87.1714 272.9757 14.34620771 19099
IRIDIUM 32 [+]          
1 24945U 97051B   17063.28863171  .00000209  00000-0  67407-4 0  9998
2 24945  86.3992 330.9678 0002175  82.0669 278.0773 14.34221741 19389
IRIDIUM 33 [-]          
1 24946U 97051C   17063.20231585  .00000109  00000-0  32343-4 0  9999
2 24946  86.3910 330.6898 0006481 213.0216 147.0575 14.33539538 18995
IRIDIUM 28 [-]          
1 24948U 97051E   17063.29247541  .00000137  00000-0  40588-4 0  9990
2 24948  86.4000 330.0610 0001802  86.2610 273.8793 14.35535262 19537
IRIDIUM 30 [+]          
1 24949U 97051F   17063.21250694  .00000038  00000-0  65171-5 0  9992
2 24949  86.4017 331.1143 0001637  83.3859 276.7523 14.34219982 19358
IRIDIUM 31 [+]          
1 24950U 97051G   17063.34571763  .00000216  00000-0  69957-4 0  9994
2 24950  86.3993 331.0370 0002185  86.9775 273.1671 14.34221676 19389
IRIDIUM 19 [+]          
1 24965U 97056A   17063.39997073  .00000215  00000-0  69771-4 0  9999
2 24965  86.4003   2.5055 0002204  84.9879 275.1568 14.34218781 17538
IRIDIUM 35 [+]          
1 24966U 97056B   17063.34285412  .00000211  00000-0  68369-4 0  9990
2 24966  86.4002   2.5237 0002190  85.0551 275.0895 14.34220083 17500
IRIDIUM 36 [-]          
1 24967U 97056C   17063.37088278  .00000123  00000-0  35812-4 0  9994
2 24967  86.4015   1.6524 0002221  90.3917 269.7534 14.35586668 17824
IRIDIUM 37 [+]          
1 24968U 97056D   17063.38732765  .00000216  00000-0  70004-4 0  9998
2 24968  86.4005   2.6887 0002237  85.2821 274.8630 14.34216234 17519
IRIDIUM 34 [+]          
1 24969U 97056E   17063.40629078  .00000219  00000-0  71037-4 0  9994
2 24969  86.4005   2.6174 0002196  86.5105 273.6342 14.34217877 17513
IRIDIUM 43 [+]          
1 25039U 97069A   17063.46374317  .00000008  00000-0 -40963-5 0  9998
2 25039  86.3923  65.7868 0002179  91.7319 268.4126 14.34216516 11308
IRIDIUM 41 [+]          
1 25040U 97069B   17063.45741535 -.00000007  00000-0 -94461-5 0  9991
2 25040  86.3924  65.7364 0002027  82.6775 277.4651 14.34215255 11301
IRIDIUM 40 [+]          
1 25041U 97069C   17063.48277677 -.00000003  00000-0 -81434-5 0  9998
2 25041  86.3921  65.9554 0002785 108.4362 251.7137 14.34217071 11326
IRIDIUM 39 [B]          
1 25042U 97069D   17063.46503512  .00000170  00000-0  41811-4 0  9994
2 25042  86.3887  63.8899 0017147 305.1234  54.8361 14.46132457 11585
IRIDIUM 38 [-]          
1 25043U 97069E   17063.49029934  .00000130  00000-0  37959-4 0  9993
2 25043  86.3928  63.0293 0000796  99.6966 260.4321 14.36012661 11709
IRIDIUM 42 [-]          
1 25077U 97077A   17063.48934442  .00000144  00000-0  44248-4 0  9991
2 25077  86.3929  65.6887 0002013  88.3058 271.8368 14.34529369  7185
IRIDIUM 44 [-]          
1 25078U 97077B   17063.49790519  .00000166  00000-0  48410-4 0  9997
2 25078  86.3937  55.5145 0000802 133.2152 226.9113 14.38101902  8586
IRIDIUM 45 [+]          
1 25104U 97082A   17063.26959621  .00000229  00000-0  74702-4 0  9992
2 25104  86.3990 331.1024 0001161  63.1962 296.9353 14.34224314  5335
IRIDIUM 24 [-]          
1 25105U 97082B   17063.52126237  .00000125  00000-0  33365-4 0  9996
2 25105  86.3893 279.6604 0010799 339.6876  20.3892 14.39838717  7792
IRIDIUM 47 [+]          
1 25106U 97082C   17063.15832965  .00000127  00000-0  38185-4 0  9995
2 25106  86.3943 299.2236 0002099  81.1393 279.0040 14.34222799  5311
IRIDIUM 49 [+]          
1 25108U 97082E   17063.52994951  .00000128  00000-0  38598-4 0  9991
2 25108  86.3945 299.1681 0002044  82.3843 329.9432 14.34221756  5379
IRIDIUM 52 [+]          
1 25169U 98010A   17063.33995373  .00000080  00000-0  21442-4 0  9995
2 25169  86.3968  34.2046 0002226  89.0855 271.0596 14.34214765996754
IRIDIUM 56 [+]          
1 25170U 98010B   17063.47324389  .00000165  00000-0  51719-4 0  9999
2 25170  86.3966  34.2471 0002054  84.6302 275.5128 14.34214614996756
IRIDIUM 54 [+]          
1 25171U 98010C   17063.50485585  .00000093  00000-0  26274-4 0  9998
2 25171  86.3969  34.1560 0002241  89.0867 271.0585 14.34214914996921
IRIDIUM 50 [+]          
1 25172U 98010D   17063.46678109  .00000093  00000-0  26142-4 0  9994
2 25172  86.3969  34.1288 0002313  88.2361 271.9099 14.34215088996752
IRIDIUM 53 [+]          
1 25173U 98010E   17063.48585215  .00000094  00000-0  26514-4 0  9996
2 25173  86.3969  34.1265 0002237  89.0169 271.1283 14.34215789996764
IRIDIUM 51 [S]          
1 25262U 98018A   17063.43181126  .00000235  00000-0  76894-4 0  9994
2 25262  86.4028   2.8003 0002537  81.2958 278.8525 14.34220869996145
IRIDIUM 61 [+]          
1 25263U 98018B   17063.32395738  .00000203  00000-0  65529-4 0  9997
2 25263  86.4004   2.6805 0002202  84.4180 275.7267 14.34216911991832
IRIDIUM 55 [+]          
1 25272U 98019A   17063.32668899  .00000214  00000-0  69488-4 0  9999
2 25272  86.3991 330.8608 0002120  82.6740 277.4697 14.34221596991037
IRIDIUM 57 [-]          
1 25273U 98019B   17063.29708059  .00000103  00000-0  29673-4 0  9998
2 25273  86.3998 331.1771 0002271  87.5873 272.5582 14.34258678991038
IRIDIUM 58 [+]          
1 25274U 98019C   17063.30765394  .00000214  00000-0  69206-4 0  9995
2 25274  86.3998 331.3662 0002155  80.6762 279.4677 14.34222113991038
IRIDIUM 59 [+]          
1 25275U 98019D   17063.31399861  .00000216  00000-0  70002-4 0  9997
2 25275  86.3993 331.2222 0002252  83.0355 277.1097 14.34220767991032
IRIDIUM 60 [+]          
1 25276U 98019E   17063.32034469  .00000213  00000-0  68858-4 0  9992
2 25276  86.3989 330.8434 0002119  82.8030 277.3406 14.34221419991038
IRIDIUM 62 [+]          
1 25285U 98021A   17063.49103882  .00000010  00000-0 -34724-5 0  9991
2 25285  86.3919 267.6619 0002061  85.3808 274.7623 14.34217249990015
IRIDIUM 63 [-]          
1 25286U 98021B   17063.53595589  .00000112  00000-0  32777-4 0  9993
2 25286  86.3949 268.0472 0002345  89.0701 326.5811 14.34644092990047
